NORAD_CAT_ID,OBJECT_NAME,OBJECT_TYPE,EPOCH,MEAN_MOTION,ECCENTRICITY,INCLINATION,RA_OF_ASC_NODE,ARG_OF_PERICENTER,MEAN_ANOMALY,BSTAR,MEAN_MOTION_DOT,MEAN_MOTION_DDOT,TLE_LINE0,TLE_LINE1,TLE_LINE2,SEMIMAJOR_AXIS,PERIOD,APOGEE,PERIGEE,DECAYED
54785.0,STARLINK-5440,PAYLOAD,2024-05-03 07:31:19,15.08846245,0.0001331,53.2154,140.8717,94.9154,265.199,4.6845e-05,4.58e-06,0.0,0 STARLINK-5440,1 54785U 22175AD  24124.31341438  .00000458  00000-0  46845-4 0  9994,2 54785  53.2154 140.8717 0001331  94.9154 265.1990 15.08846245 78739,6917.861,95.437,540.647,538.806,0.0
54785.0,STARLINK-5440,PAYLOAD,2024-05-03 18:39:00,15.08867976,0.0001293,53.2151,138.79,90.729,269.3851,-0.00025192,-4.298e-05,0.0,0 STARLINK-5440,1 54785U 22175AD  24124.77708768 -.00004298  00000-0 -25192-3 0  9996,2 54785  53.2151 138.7900 0001293  90.7290 269.3851 15.08867976 76642,6917.795,95.436,540.554,538.765,0.0
54785.0,STARLINK-5440,PAYLOAD,2024-05-04 04:11:20,15.08835845,0.0001697,53.216,137.0044,105.9473,254.1706,4.1033e-05,3.65e-06,0.0,0 STARLINK-5440,1 54785U 22175AD  24125.17453990  .00000365  00000-0  41033-4 0  9997,2 54785  53.2160 137.0044 0001697 105.9473 254.1706 15.08835845 76701,6917.893,95.438,540.932,538.584,0.0
54785.0,STARLINK-5440,PAYLOAD,2024-05-04 10:32:53,15.08830799,0.0001307,53.2159,135.8174,89.1486,270.9656,-4.8515e-05,-1.06e-05,0.0,0 STARLINK-5440,1 54785U 22175AD  24125.43950754 -.00001060  00000-0 -48515-4 0  9993,2 54785  53.2159 135.8174 0001307  89.1486 270.9656 15.08830799 76741,6917.909,95.438,540.678,538.869,0.0
54785.0,STARLINK-5440,PAYLOAD,2024-05-05 04:02:07,15.08836077,0.0001404,53.2174,132.547,90.4762,269.6391,2.6209e-06,-2.46e-06,0.0,0 STARLINK-5440,1 54785U 22175AD  24126.16814558 -.00000246  00000-0  26209-5 0  9996,2 54785  53.2174 132.5470 0001404  90.4762 269.6391 15.08836077 76859,6917.892,95.438,540.729,538.786,0.0
54785.0,STARLINK-5440,PAYLOAD,2024-05-05 10:23:40,15.08839374,0.0001166,53.2166,131.357,82.6181,277.4944,-3.3312e-05,-8.18e-06,0.0,0 STARLINK-5440,1 54785U 22175AD  24126.43310476 -.00000818  00000-0 -33312-4 0  9994,2 54785  53.2166 131.3570 0001166  82.6181 277.4944 15.08839374 79050,6917.882,95.438,540.554,538.941,0.0
54785.0,STARLINK-5440,PAYLOAD,2024-05-06 03:52:56,15.08817857,0.0001411,53.2164,128.0849,88.4281,271.6873,-1.1426e-05,-4.7e-06,0.0,0 STARLINK-5440,1 54785U 22175AD  24127.16176338 -.00000470  00000-0 -11426-4 0  9998,2 54785  53.2164 128.0849 0001411  88.4281 271.6873 15.08817857 77000,6917.948,95.439,540.789,538.837,0.0
54785.0,STARLINK-5440,PAYLOAD,2024-05-06 07:03:42,15.08819265,0.0001361,53.2163,127.4912,84.0303,276.0844,9.8777e-06,-1.31e-06,0.0,0 STARLINK-5440,1 54785U 22175AD  24127.29424372 -.00000131  00000-0  98777-5 0  9994,2 54785  53.2163 127.4912 0001361  84.0303 276.0844 15.08819265 79187,6917.944,95.439,540.75,538.867,0.0
54785.0,STARLINK-5440,PAYLOAD,2024-05-06 16:36:01,15.08824017,0.0001292,53.2161,125.7073,83.6949,276.419,1.5044e-05,-4.9e-07,0.0,0 STARLINK-5440,1 54785U 22175AD  24127.69168542 -.00000049  00000-0  15044-4 0  9995,2 54785  53.2161 125.7073 0001292  83.6949 276.4190 15.08824017 79244,6917.929,95.439,540.688,538.9,0.0
54785.0,STARLINK-5440,PAYLOAD,2024-05-07 03:43:43,15.08833664,0.0001239,53.2157,123.6235,72.3007,287.812,3.8799e-05,3.3e-06,0.0,0 STARLINK-5440,1 54785U 22175AD  24128.15536244  .00000330  00000-0  38799-4 0  9999,2 54785  53.2157 123.6235 0001239  72.3007 287.8120 15.08833664 77152,6917.9,95.438,540.622,538.908,0.0
54785.0,STARLINK-5440,PAYLOAD,2024-05-07 08:29:52,15.08836387,0.0001254,53.2158,122.7323,77.0488,283.0644,7.764e-05,9.48e-06,0.0,0 STARLINK-5440,1 54785U 22175AD  24128.35408065  .00000948  00000-0  77640-4 0  9993,2 54785  53.2158 122.7323 0001254  77.0488 283.0644 15.08836387 79340,6917.891,95.438,540.624,538.889,0.0
54785.0,STARLINK-5440,PAYLOAD,2024-05-08 05:09:52,15.08840973,0.0001228,53.2156,118.8661,74.1009,286.0118,0.00020637,2.998e-05,0.0,0 STARLINK-5440,1 54785U 22175AD  24129.21519601  .00002998  00000-0  20637-3 0  9998,2 54785  53.2156 118.8661 0001228  74.1009 286.0118 15.08840973 77317,6917.877,95.437,540.592,538.893,0.0
54785.0,STARLINK-5440,PAYLOAD,2024-05-08 08:20:38,15.08845378,0.0001251,53.2158,118.2717,76.0806,284.0325,0.00024237,3.572e-05,0.0,0 STARLINK-5440,1 54785U 22175AD  24129.34767299  .00003572  00000-0  24237-3 0  9999,2 54785  53.2158 118.2717 0001251  76.0806 284.0325 15.08845378 79490,6917.864,95.437,540.594,538.864,0.0
54785.0,STARLINK-5440,PAYLOAD,2024-05-08 16:17:34,15.0884962,0.0001241,53.2159,116.7854,81.2569,278.8564,0.00023349,3.431e-05,0.0,0 STARLINK-5440,1 54785U 22175AD  24129.67887007  .00003431  00000-0  23349-3 0  9992,2 54785  53.2159 116.7854 0001241  81.2569 278.8564 15.08849620 79545,6917.851,95.437,540.574,538.857,0.0
54785.0,STARLINK-5440,PAYLOAD,2024-05-09 08:11:25,15.08853554,0.0001348,53.2168,113.8121,82.1513,277.9632,0.00012298,1.671e-05,0.0,0 STARLINK-5440,1 54785U 22175AD  24130.34126817  .00001671  00000-0  12298-3 0  9998,2 54785  53.2168 113.8121 0001348  82.1513 277.9632 15.08853554 77485,6917.839,95.437,540.636,538.771,0.0
54785.0,STARLINK-5440,PAYLOAD,2024-05-10 04:51:26,15.08852929,0.0001251,53.2162,109.9443,93.5027,266.6108,-2.0762e-06,-3.21e-06,0.0,0 STARLINK-5440,1 54785U 22175AD  24131.20238692 -.00000321  00000-0 -20762-5 0  9999,2 54785  53.2162 109.9443 0001251  93.5027 266.6108 15.08852929 77614,6917.841,95.437,540.571,538.84,0.0
54785.0,STARLINK-5440,PAYLOAD,2024-05-10 22:20:40,15.08846873,0.0001768,53.217,106.6742,89.0506,271.0688,4.1819e-05,3.78e-06,0.0,0 STARLINK-5440,1 54785U 22175AD  24131.93102571  .00000378  00000-0  41819-4 0  9990,2 54785  53.2170 106.6742 0001768  89.0506 271.0688 15.08846873 79889,6917.859,95.437,540.947,538.501,0.0
54785.0,STARLINK-5440,PAYLOAD,2024-05-11 04:42:12,15.08855129,0.0001798,53.2187,105.4858,90.6839,269.4359,6.1353e-05,6.89e-06,0.0,0 STARLINK-5440,1 54785U 22175AD  24132.19598044  .00000689  00000-0  61353-4 0  9993,2 54785  53.2187 105.4858 0001798  90.6839 269.4359 15.08855129 79927,6917.834,95.437,540.943,538.455,0.0
54785.0,STARLINK-5440,PAYLOAD,2024-05-12 04:33:01,15.08776081,0.000143,53.2154,101.0225,94.2588,265.8567,-0.0012842,-0.00020632,0.0,0 STARLINK-5440,1 54785U 22175AD  24133.18960026 -.00020632  00000-0 -12842-2 0  9995,2 54785  53.2154 101.0225 0001430  94.2588 265.8567 15.08776081 77912,6918.076,95.442,540.93,538.951,0.0
54785.0,STARLINK-5440,PAYLOAD,2024-05-12 07:43:49,15.08774494,0.0001577,53.2169,100.4301,96.0483,264.0688,-0.00090307,-0.00014606,0.0,0 STARLINK-5440,1 54785U 22175AD  24133.32209675 -.00014606  00000-0 -90307-3 0  9994,2 54785  53.2169 100.4301 0001577  96.0483 264.0688 15.08774494 80096,6918.081,95.442,541.037,538.855,0.0
54785.0,STARLINK-5440,PAYLOAD,2024-05-13 04:23:49,15.08830232,0.0001634,53.2171,96.5653,93.3145,266.8034,0.00032648,4.91e-05,0.0,0 STARLINK-5440,1 54785U 22175AD  24134.18321601  .00004910  00000-0  32648-3 0  9992,2 54785  53.2171  96.5653 0001634  93.3145 266.8034 15.08830232 78065,6917.91,95.438,540.906,538.645,0.0
54785.0,STARLINK-5440,PAYLOAD,2024-05-13 13:56:08,15.08839961,0.0001708,53.2172,94.7811,79.8985,280.22,0.00025569,3.784e-05,0.0,0 STARLINK-5440,1 54785U 22175AD  24134.58065270  .00003784  00000-0  25569-3 0  9995,2 54785  53.2172  94.7811 0001708  79.8985 280.2200 15.08839961 80285,6917.881,95.438,540.927,538.564,0.0
54785.0,STARLINK-5440,PAYLOAD,2024-05-13 21:53:04,15.08820966,0.0001403,53.2165,93.2938,95.4197,264.6955,0.0010038,0.00015715,0.0,0 STARLINK-5440,1 54785U 22175AD  24134.91186042  .00015715  00000-0  10038-2 0  9994,2 54785  53.2165  93.2938 0001403  95.4197 264.6955 15.08820966 80336,6917.939,95.439,540.774,538.833,0.0
54785.0,STARLINK-5440,PAYLOAD,2024-05-14 04:14:37,15.08833907,0.0001389,53.2167,92.1048,94.8135,265.3016,0.00099607,0.00015597,0.0,0 STARLINK-5440,1 54785U 22175AD  24135.17681754  .00015597  00000-0  99607-3 0  9991,2 54785  53.2167  92.1048 0001389  94.8135 265.3016 15.08833907 78215,6917.899,95.438,540.725,538.803,0.0
54785.0,STARLINK-5440,PAYLOAD,2024-05-14 13:46:55,15.08850366,0.0001433,53.2171,90.3205,93.8111,266.3045,0.00092765,0.00014511,0.0,0 STARLINK-5440,1 54785U 22175AD  24135.57425014  .00014511  00000-0  92765-3 0  9993,2 54785  53.2171  90.3205 0001433  93.8111 266.3045 15.08850366 80436,6917.849,95.437,540.705,538.722,0.0
54785.0,STARLINK-5440,PAYLOAD,2024-05-15 07:16:08,15.08871153,0.0001393,53.2168,87.0494,95.374,264.7411,0.00028212,4.209e-05,0.0,0 STARLINK-5440,1 54785U 22175AD  24136.30287113  .00004209  00000-0  28212-3 0  9990,2 54785  53.2168  87.0494 0001393  95.3740 264.7411 15.08871153 80543,6917.785,95.436,540.614,538.687,0.0
54785.0,STARLINK-5440,PAYLOAD,2024-05-16 03:56:08,15.08853303,0.0001672,53.217,83.1787,60.9167,299.1992,3.5315e-05,2.74e-06,0.0,0 STARLINK-5440,1 54785U 22175AD  24137.16398991  .00000274  00000-0  35315-4 0  9993,2 54785  53.2170  83.1787 0001672  60.9167 299.1992 15.08853303 78516,6917.84,95.437,540.861,538.548,0.0
54785.0,STARLINK-5440,PAYLOAD,2024-05-16 13:28:26,15.08858507,0.0001259,53.2165,81.3967,89.3758,270.7378,0.0001037,1.364e-05,0.0,0 STARLINK-5440,1 54785U 22175AD  24137.56142292  .00001364  00000-0  10370-3 0  9992,2 54785  53.2165  81.3967 0001259  89.3758 270.7378 15.08858507 80733,6917.824,95.436,540.56,538.818,0.0
54785.0,STARLINK-5440,PAYLOAD,2024-05-17 13:19:13,15.0886322,0.0001512,53.2163,76.9386,77.0655,283.0506,0.00057296,8.848e-05,0.0,0 STARLINK-5440,1 54785U 22175AD  24138.55501825  .00008848  00000-0  57296-3 0  9995,2 54785  53.2163  76.9386 0001512  77.0655 283.0506 15.08863220 80882,6917.809,95.436,540.72,538.628,0.0
54785.0,STARLINK-5440,PAYLOAD,2024-05-17 19:40:47,15.08823838,0.000208,53.216,75.7488,83.9124,276.2105,-0.00035733,-5.968e-05,0.0,0 STARLINK-5440,1 54785U 22175AD  24138.81999373 -.00005968  00000-0 -35733-3 0  9997,2 54785  53.2160  75.7488 0002080  83.9124 276.2105 15.08823838 78761,6917.93,95.439,541.234,538.356,0.0
